{
  "type": "FeatureCollection",
  "features": [
    {
      "type": "Feature",
      "properties": {
        "norad_id": 34420,
        "name": "COSMOS 2251 DEB",
        "group": "cosmos-2251-debris",
        "lat": 69.96647063900066,
        "lon": -124.3770885218908,
        "alt_km": 703.7873499074794,
        "timestamp": "2025-12-10T23:33:13.212322+00:00",
        "meta_object_name": "COSMOS 2251 DEB",
        "meta_object_id": "1993-036RM",
        "meta_epoch": "2025-12-10T14:59:42.199872",
        "meta_mean_motion": 14.6828771,
        "meta_eccentricity": 0.01067232,
        "meta_inclination": 74.0335,
        "meta_ra_of_asc_node": 108.0499,
        "meta_arg_of_pericenter": 229.6762,
        "meta_mean_anomaly": 149.3385,
        "meta_ephemeris_type": 0,
        "meta_classification_type": "U",
        "meta_norad_cat_id": 34420,
        "meta_element_set_no": 999,
        "meta_rev_at_epoch": 89739,
        "meta_bstar": 0.00041764282,
        "meta_mean_motion_dot": 2.592e-05,
        "meta_mean_motion_ddot": 0,
        "tle_line1": "1 34420U 93036RM  25344.62479398  .00002592  00000+0  41764-3 0  9992",
        "tle_line2": "2 34420  74.0335 108.0499 0106723 229.6762 149.3385 14.68287710897394"
      },
      "geometry": {
        "type": "Point",
        "coordinates": [
          -124.3770885218908,
          69.96647063900066
        ]
      }
    },
    {
      "type": "Feature",
      "properties": {
        "norad_id": 34425,
        "name": "COSMOS 2251 DEB",
        "group": "cosmos-2251-debris",
        "lat": -47.34194514311116,
        "lon": -103.99390411517179,
        "alt_km": 680.3320430778549,
        "timestamp": "2025-12-10T23:33:13.212332+00:00",
        "meta_object_name": "COSMOS 2251 DEB",
        "meta_object_id": "1993-036RS",
        "meta_epoch": "2025-12-10T14:17:45.425760",
        "meta_mean_motion": 14.62109192,
        "meta_eccentricity": 0.00249425,
        "meta_inclination": 74.02,
        "meta_ra_of_asc_node": 58.6258,
        "meta_arg_of_pericenter": 185.6919,
        "meta_mean_anomaly": 174.3968,
        "meta_ephemeris_type": 0,
        "meta_classification_type": "U",
        "meta_norad_cat_id": 34425,
        "meta_element_set_no": 999,
        "meta_rev_at_epoch": 88709,
        "meta_bstar": 0.00094392883,
        "meta_mean_motion_dot": 4.738e-05,
        "meta_mean_motion_ddot": 0,
        "tle_line1": "1 34425U 93036RS  25344.59566465  .00004738  00000+0  94393-3 0  9995",
        "tle_line2": "2 34425  74.0200  58.6258 0024942 185.6919 174.3968 14.62109192887092"
      },
      "geometry": {
        "type": "Point",
        "coordinates": [
          -103.99390411517179,
          -47.34194514311116
        ]
      }
    },
    {
      "type": "Feature",
      "properties": {
        "norad_id": 34429,
        "name": "COSMOS 2251 DEB",
        "group": "cosmos-2251-debris",
        "lat": 32.13690977062867,
        "lon": -18.570136557336394,
        "alt_km": 445.407660316705,
        "timestamp": "2025-12-10T23:33:13.212341+00:00",
        "meta_object_name": "COSMOS 2251 DEB",
        "meta_object_id": "1993-036RW",
        "meta_epoch": "2025-12-10T12:08:01.998816",
        "meta_mean_motion": 15.40292779,
        "meta_eccentricity": 0.00067875,
        "meta_inclination": 73.9712,
        "meta_ra_of_asc_node": 172.8672,
        "meta_arg_of_pericenter": 16.6969,
        "meta_mean_anomaly": 12.0165,
        "meta_ephemeris_type": 0,
        "meta_classification_type": "U",
        "meta_norad_cat_id": 34429,
        "meta_element_set_no": 999,
        "meta_rev_at_epoch": 89414,
        "meta_bstar": 0.0065167846,
        "meta_mean_motion_dot": 0.00272351,
        "meta_mean_motion_ddot": 0,
        "tle_line1": "1 34429U 93036RW  25344.50557869  .00272351  00000+0  65168-2 0  9993",
        "tle_line2": "2 34429  73.9712 172.8672 0006787  16.6969  12.0165 15.40292779894148"
      },
      "geometry": {
        "type": "Point",
        "coordinates": [
          -18.570136557336394,
          32.13690977062867
        ]
      }
    },
    {
      "type": "Feature",
      "properties": {
        "norad_id": 34430,
        "name": "COSMOS 2251 DEB",
        "group": "cosmos-2251-debris",
        "lat": 24.979522136313317,
        "lon": 118.95115627369219,
        "alt_km": 790.0922335957612,
        "timestamp": "2025-12-10T23:33:13.212350+00:00",
        "meta_object_name": "COSMOS 2251 DEB",
        "meta_object_id": "1993-036RX",
        "meta_epoch": "2025-12-10T14:30:20.605824",
        "meta_mean_motion": 14.39621855,
        "meta_eccentricity": 0.00602761,
        "meta_inclination": 74.0523,
        "meta_ra_of_asc_node": 307.3017,
        "meta_arg_of_pericenter": 17.4561,
        "meta_mean_anomaly": 342.8646,
        "meta_ephemeris_type": 0,
        "meta_classification_type": "U",
        "meta_norad_cat_id": 34430,
        "meta_element_set_no": 999,
        "meta_rev_at_epoch": 87924,
        "meta_bstar": 0.00084493153,
        "meta_mean_motion_dot": 2.672e-05,
        "meta_mean_motion_ddot": 0,
        "tle_line1": "1 34430U 93036RX  25344.60440516  .00002672  00000+0  84493-3 0  9996",
        "tle_line2": "2 34430  74.0523 307.3017 0060276  17.4561 342.8646 14.39621855879240"
      },
      "geometry": {
        "type": "Point",
        "coordinates": [
          118.95115627369219,
          24.979522136313317
        ]
      }
    },
    {
      "type": "Feature",
      "properties": {
        "norad_id": 34431,
        "name": "COSMOS 2251 DEB",
        "group": "cosmos-2251-debris",
        "lat": 53.40336900737941,
        "lon": -24.229731856823555,
        "alt_km": 753.4449644026163,
        "timestamp": "2025-12-10T23:33:13.212360+00:00",
        "meta_object_name": "COSMOS 2251 DEB",
        "meta_object_id": "1993-036RY",
        "meta_epoch": "2025-12-09T23:27:02.345472",
        "meta_mean_motion": 14.28759324,
        "meta_eccentricity": 0.0068412,
        "meta_inclination": 74.0746,
        "meta_ra_of_asc_node": 180.2002,
        "meta_arg_of_pericenter": 166.6572,
        "meta_mean_anomaly": 193.6408,
        "meta_ephemeris_type": 0,
        "meta_classification_type": "U",
        "meta_norad_cat_id": 34431,
        "meta_element_set_no": 999,
        "meta_rev_at_epoch": 87103,
        "meta_bstar": 0.00077362486,
        "meta_mean_motion_dot": 1.973e-05,
        "meta_mean_motion_ddot": 0,
        "tle_line1": "1 34431U 93036RY  25343.97711048  .00001973  00000+0  77362-3 0  9997",
        "tle_line2": "2 34431  74.0746 180.2002 0068412 166.6572 193.6408 14.28759324871037"
      },
      "geometry": {
        "type": "Point",
        "coordinates": [
          -24.229731856823555,
          53.40336900737941
        ]
      }
    },
    {
      "type": "Feature",
      "properties": {
        "norad_id": 34432,
        "name": "COSMOS 2251 DEB",
        "group": "cosmos-2251-debris",
        "lat": -60.262007359665255,
        "lon": 74.89644479666333,
        "alt_km": 927.1248455267796,
        "timestamp": "2025-12-10T23:33:13.212372+00:00",
        "meta_object_name": "COSMOS 2251 DEB",
        "meta_object_id": "1993-036RZ",
        "meta_epoch": "2025-12-10T15:22:37.509024",
        "meta_mean_motion": 14.02893053,
        "meta_eccentricity": 0.01827032,
        "meta_inclination": 73.8286,
        "meta_ra_of_asc_node": 106.0228,
        "meta_arg_of_pericenter": 189.0096,
        "meta_mean_anomaly": 184.3567,
        "meta_ephemeris_type": 0,
        "meta_classification_type": "U",
        "meta_norad_cat_id": 34432,
        "meta_element_set_no": 999,
        "meta_rev_at_epoch": 85655,
        "meta_bstar": 0.0020666021,
        "meta_mean_motion_dot": 3.686e-05,
        "meta_mean_motion_ddot": 0,
        "tle_line1": "1 34432U 93036RZ  25344.64071191  .00003686  00000+0  20666-2 0  9998",
        "tle_line2": "2 34432  73.8286 106.0228 0182703 189.0096 184.3567 14.02893053856553"
      },
      "geometry": {
        "type": "Point",
        "coordinates": [
          74.89644479666333,
          -60.262007359665255
        ]
      }
    },
    {
      "type": "Feature",
      "properties": {
        "norad_id": 34433,
        "name": "COSMOS 2251 DEB",
        "group": "cosmos-2251-debris",
        "lat": -67.17512811136892,
        "lon": 20.99579517051219,
        "alt_km": 775.4273907060788,
        "timestamp": "2025-12-10T23:33:13.212385+00:00",
        "meta_object_name": "COSMOS 2251 DEB",
        "meta_object_id": "1993-036SA",
        "meta_epoch": "2025-12-08T22:45:44.652672",
        "meta_mean_motion": 14.12826602,
        "meta_eccentricity": 0.0151933,
        "meta_inclination": 74.0116,
        "meta_ra_of_asc_node": 161.6553,
        "meta_arg_of_pericenter": 300.4832,
        "meta_mean_anomaly": 58.1378,
        "meta_ephemeris_type": 0,
        "meta_classification_type": "U",
        "meta_norad_cat_id": 34433,
        "meta_element_set_no": 999,
        "meta_rev_at_epoch": 85896,
        "meta_bstar": 0.0014623,
        "meta_mean_motion_dot": 3.008e-05,
        "meta_mean_motion_ddot": 0,
        "tle_line1": "1 34433U 93036SA  25342.94843348  .00003008  00000+0  14623-2 0  9995",
        "tle_line2": "2 34433  74.0116 161.6553 0151933 300.4832  58.1378 14.12826602858967"
      },
      "geometry": {
        "type": "Point",
        "coordinates": [
          20.99579517051219,
          -67.17512811136892
        ]
      }
    }
  ]
}